{
  "{'offset': 0}": {
    "error": "",
    "response": {
      "requestId": "020d976d-03bc-4304-bed6-80de20ecac0f",
      "results": [
        {
          "amenity_id": 1,
          "amenity": "TV"
        },
        {
          "amenity_id": 2,
          "amenity": "Cable TV"
        },
        {
          "amenity_id": 3,
          "amenity": "Internet"
        },
        {
          "amenity_id": 4,
          "amenity": "Wifi"
        },
        {
          "amenity_id": 5,
          "amenity": "Air conditioning"
        },
        {
          "amenity_id": 6,
          "amenity": "Wheelchair accessible"
        },
        {
          "amenity_id": 7,
          "amenity": "Pool"
        },
        {
          "amenity_id": 8,
          "amenity": "Kitchen"
        },
        {
          "amenity_id": 9,
          "amenity": "Free parking on premises"
        },
        {
          "amenity_id": 10,
          "amenity": "Paid parking off premises"
        },
        {
          "amenity_id": 11,
          "amenity": "Smoking allowed"
        },
        {
          "amenity_id": 12,
          "amenity": "Pets allowed"
        },
        {
          "amenity_id": 14,
          "amenity": "Doorman"
        },
        {
          "amenity_id": 15,
          "amenity": "Gym"
        },
        {
          "amenity_id": 16,
          "amenity": "Breakfast"
        },
        {
          "amenity_id": 17,
          "amenity": "Pets live on this property"
        },
        {
          "amenity_id": 18,
          "amenity": "Dog(s)"
        },
        {
          "amenity_id": 19,
          "amenity": "Cat(s)"
        },
        {
          "amenity_id": 20,
          "amenity": "Other pet(s)"
        },
        {
          "amenity_id": 21,
          "amenity": "Elevator"
        },
        {
          "amenity_id": 22,
          "amenity": "Garage parking"
        },
        {
          "amenity_id": 23,
          "amenity": "Free street parking"
        },
        {
          "amenity_id": 25,
          "amenity": "Hot tub"
        },
        {
          "amenity_id": 27,
          "amenity": "Indoor fireplace"
        },
        {
          "amenity_id": 28,
          "amenity": "Buzzer/wireless intercom"
        },
        {
          "amenity_id": 30,
          "amenity": "Heating"
        },
        {
          "amenity_id": 31,
          "amenity": "Family/kid friendly"
        },
        {
          "amenity_id": 32,
          "amenity": "Suitable for events"
        },
        {
          "amenity_id": 33,
          "amenity": "Washer"
        },
        {
          "amenity_id": 34,
          "amenity": "Dryer"
        },
        {
          "amenity_id": 35,
          "amenity": "Smoke alarm"
        },
        {
          "amenity_id": 36,
          "amenity": "Carbon monoxide alarm"
        },
        {
          "amenity_id": 37,
          "amenity": "First aid kit"
        },
        {
          "amenity_id": 38,
          "amenity": "Safety card"
        },
        {
          "amenity_id": 39,
          "amenity": "Fire extinguisher"
        },
        {
          "amenity_id": 40,
          "amenity": "Essentials"
        },
        {
          "amenity_id": 41,
          "amenity": "Shampoo"
        },
        {
          "amenity_id": 42,
          "amenity": "Lock on bedroom door"
        },
        {
          "amenity_id": 43,
          "amenity": "24-hour check-in"
        },
        {
          "amenity_id": 44,
          "amenity": "Hangers"
        },
        {
          "amenity_id": 45,
          "amenity": "Hair dryer"
        },
        {
          "amenity_id": 46,
          "amenity": "Iron"
        },
        {
          "amenity_id": 47,
          "amenity": "Laptop-friendly workspace"
        },
        {
          "amenity_id": 49,
          "amenity": "translation missing: en.hosting_amenity_49"
        },
        {
          "amenity_id": 50,
          "amenity": "translation missing: en.hosting_amenity_50"
        },
        {
          "amenity_id": 51,
          "amenity": "Self check-in"
        },
        {
          "amenity_id": 52,
          "amenity": "Smart lock"
        },
        {
          "amenity_id": 53,
          "amenity": "Keypad"
        },
        {
          "amenity_id": 54,
          "amenity": "Lockbox"
        },
        {
          "amenity_id": 55,
          "amenity": "Building staff"
        }
      ]
    }
  },
  "{'offset': 100}": {
    "error": "",
    "response": {
      "requestId": "3ad7bded-e090-4290-a0d5-d395a503507f",
      "results": [
        {
          "amenity_id": 111,
          "amenity": "Wide entrance for guests"
        },
        {
          "amenity_id": 112,
          "amenity": "Flat path to guest entrance"
        },
        {
          "amenity_id": 113,
          "amenity": "Well-lit path to entrance"
        },
        {
          "amenity_id": 114,
          "amenity": "Disabled parking spot"
        },
        {
          "amenity_id": 115,
          "amenity": "No stairs or steps to enter"
        },
        {
          "amenity_id": 117,
          "amenity": "Extra space around bed"
        },
        {
          "amenity_id": 118,
          "amenity": "Accessible-height bed"
        },
        {
          "amenity_id": 119,
          "amenity": "Firm mattress"
        },
        {
          "amenity_id": 120,
          "amenity": "No stairs or steps to enter"
        },
        {
          "amenity_id": 121,
          "amenity": "Wide doorway to guest bathroom"
        },
        {
          "amenity_id": 122,
          "amenity": "Fixed grab bars for shower, toilet"
        },
        {
          "amenity_id": 124,
          "amenity": "Roll-in shower with chair"
        },
        {
          "amenity_id": 125,
          "amenity": "Accessible-height toilet"
        },
        {
          "amenity_id": 126,
          "amenity": "Wide clearance to shower, toilet"
        },
        {
          "amenity_id": 127,
          "amenity": "No stairs or steps to enter"
        },
        {
          "amenity_id": 128,
          "amenity": "Wide entryway"
        },
        {
          "amenity_id": 129,
          "amenity": "Host greets you"
        },
        {
          "amenity_id": 131,
          "amenity": "Other"
        },
        {
          "amenity_id": 132,
          "amenity": "Waterfront"
        },
        {
          "amenity_id": 133,
          "amenity": "Lake access"
        },
        {
          "amenity_id": 134,
          "amenity": "Beachfront"
        },
        {
          "amenity_id": 135,
          "amenity": "Ski-in/Ski-out"
        },
        {
          "amenity_id": 136,
          "amenity": "Handheld shower head"
        },
        {
          "amenity_id": 137,
          "amenity": "Hot water kettle"
        },
        {
          "amenity_id": 139,
          "amenity": "Ceiling fan"
        },
        {
          "amenity_id": 143,
          "amenity": "Heated floors"
        },
        {
          "amenity_id": 145,
          "amenity": "Kitchenette"
        },
        {
          "amenity_id": 146,
          "amenity": "Mini fridge"
        },
        {
          "amenity_id": 151,
          "amenity": "Smart TV"
        },
        {
          "amenity_id": 152,
          "amenity": "DVD player"
        },
        {
          "amenity_id": 153,
          "amenity": "Hammock"
        },
        {
          "amenity_id": 155,
          "amenity": "Beach view"
        },
        {
          "amenity_id": 163,
          "amenity": "Shower bathtub combo"
        },
        {
          "amenity_id": 164,
          "amenity": "Rain shower"
        },
        {
          "amenity_id": 167,
          "amenity": "Bidet"
        },
        {
          "amenity_id": 168,
          "amenity": "Heated towel rack"
        },
        {
          "amenity_id": 172,
          "amenity": "Kayak"
        },
        {
          "amenity_id": 179,
          "amenity": "Alfresco dining"
        },
        {
          "amenity_id": 180,
          "amenity": "Terrace"
        },
        {
          "amenity_id": 181,
          "amenity": "Balcony"
        },
        {
          "amenity_id": 184,
          "amenity": "Outdoor kitchen"
        },
        {
          "amenity_id": 185,
          "amenity": "Sound system"
        },
        {
          "amenity_id": 187,
          "amenity": "Gas oven"
        },
        {
          "amenity_id": 201,
          "amenity": "Bicycle"
        },
        {
          "amenity_id": 204,
          "amenity": "Climbing wall"
        },
        {
          "amenity_id": 210,
          "amenity": "Alfresco shower"
        },
        {
          "amenity_id": 211,
          "amenity": "Mosquito net"
        },
        {
          "amenity_id": 214,
          "amenity": "Tennis court"
        },
        {
          "amenity_id": 219,
          "amenity": "Fire pit"
        },
        {
          "amenity_id": 223,
          "amenity": "Sauna"
        }
      ]
    }
  }
}