{
    "tool_name":"CannaFinder",
    "tool_description":"Find cannabis, marijuana, dispensaries shop locations with additional data around you or the world.  Try for free.",
    "title":"CannaFinder",
    "pricing":"FREEMIUM",
    "score":null,
    "home_url":"https://rapidapi.com/trapffm/api/cannafinder/",
    "host":"cannafinder.p.rapidapi.com",
    "api_list":[
        {
            "name":"/shops-in-boundingbox-delta",
            "url":"https://cannafinder.p.rapidapi.com/shops-in-boundingbox-delta",
            "description":"Find shops in boundingbox with delta",
            "method":"GET",
            "required_parameters":[
                {
                    "name":"longitudedelta",
                    "type":"NUMBER",
                    "description":"",
                    "default":"1"
                },
                {
                    "name":"latitudedelta",
                    "type":"NUMBER",
                    "description":"",
                    "default":"1"
                },
                {
                    "name":"lon",
                    "type":"NUMBER",
                    "description":"",
                    "default":"4.902427"
                },
                {
                    "name":"lat",
                    "type":"NUMBER",
                    "description":"",
                    "default":"52.377075"
                }
            ],
            "optional_parameters":[],
            "code":"import requests\n\nurl = \"https://cannafinder.p.rapidapi.com/shops-in-boundingbox-delta\"\nquerystring = {\"longitudedelta\": longitudedelta, \"latitudedelta\": latitudedelta, \"lon\": lon, \"lat\": lat}\n\nheaders = {\n    \"X-RapidAPI-Key\": \"SIGN-UP-FOR-KEY\",\n    \"X-RapidAPI-Host\": \"cannafinder.p.rapidapi.com\"\n}\n\nresponse = requests.get(url, headers=headers, params=querystring)\n\nprint(response.json())\n",
            "statuscode":200,
            "body":{
                "data":[
                    {
                        "type":"node",
                        "id":460478679,
                        "lat":52.3484608,
                        "lon":4.9056303,
                        "tags":{
                            "addr:city":"Amsterdam",
                            "addr:housename":"9",
                            "addr:postcode":"1078RE",
                            "addr:street":"Vechtstraat",
                            "name":"Coffeeshop Relax",
                            "shop":"cannabis",
                            "website":"https://www.coffeeshop-relax.nl/"
                        }
                    },
                    {
                        "type":"node",
                        "id":519147562,
                        "lat":52.3799367,
                        "lon":4.6311874,
                        "tags":{
                            "name":"Easy Max (Maximilian)",
                            "shop":"cannabis"
                        }
                    },
                    {
                        "type":"node",
                        "id":717804018,
                        "lat":52.3743377,
                        "lon":4.8925504,
                        "tags":{
                            "addr:city":"Amsterdam",
                            "addr:country":"NL",
                            "addr:housename":"Amsterdam Seed Center",
                            "addr:housenumber":"12",
                            "addr:postcode":"1012NM",
                            "addr:street":"Gravenstraat",
                            "designation":"Cannabis Seed Shop",
                            "name":"Amsterdam Seed Center",
                            "shop":"cannabis",
                            "website":"http://www.amsterdamseedcenter.com"
                        }
                    },
                    {
                        "type":"node",
                        "id":1538261143,
                        "lat":52.3579398,
                        "lon":4.8540529,
                        "tags":{
                            "addr:city":"Amsterdam",
                            "addr:housenumber":"7",
                            "addr:postcode":"1058GJ",
                            "addr:street":"Surinamestraat",
                            "name":"Coffeeshop De Prijs",
                            "phone":"+31 20 6690620",
                            "shop":"cannabis"
                        }
                    },
                    {
                        "type":"node",
                        "id":1595360510,
                        "lat":52.3220211,
                        "lon":4.8570646,
                        "tags":{
                            "addr:city":"Amsterdam",
                            "addr:housenumber":"1160",
                            "addr:postcode":"1081JW",
                            "addr:street":"Amstelveenseweg",
                            "name":"Coffeeshop The Border",
                            "phone":"+31 20 6420681",
                            "shop":"cannabis",
                            "website":"https://www.theborder.nl/"
                        }
                    },
                    {
                        "type":"node",
                        "id":2506629001,
                        "lat":52.3536957,
                        "lon":4.8871751,
                        "tags":{
                            "addr:city":"Amsterdam",
                            "addr:housenumber":"145",
                            "addr:postcode":"1072AR",
                            "addr:street":"Ruysdaelkade",
                            "internet_access":"wlan",
                            "name":"Coffeeshop Stone's",
                            "opening_hours":"PH,Mo-Su 08:00-01:00",
                            "phone":"+31 20 6715370",
                            "shop":"cannabis",
                            "website":"https://coffeeshopstones.nl/",
                            "wheelchair":"no"
                        }
                    },
                    {
                        "type":"node",
                        "id":2610241453,
                        "lat":51.9152634,
                        "lon":4.4750699,
                        "tags":{
                            "addr:city":"Rotterdam",
                            "addr:housenumber":"29A",
                            "addr:postcode":"3012LB",
                            "addr:street":"Eendrachtsweg",
                            "drug":"weed",
                            "name":"The 4 Floors",
                            "opening_hours":"Mo-Su,PH 10:00-24:00",
                            "shop":"cannabis",
                            "source":"BAG",
                            "source:date":"2013-11-26"
                        }
                    },
                    {
                        "type":"node",
                        "id":2610271063,
                        "lat":51.9235225,
                        "lon":4.4858759,
                        "tags":{
                            "addr:city":"Rotterdam",
                            "addr:housenumber":"7",
                            "addr:postcode":"3011HE",
                            "addr:street":"Botersloot",
                            "name":"Trefpunt",
                            "shop":"cannabis",
                            "source":"BAG",
                            "source:date":"2013-11-26"
                        }
                    },
                    {
                        "type":"node",
                        "id":2610277268,
                        "lat":51.9151122,
                        "lon":4.4756151,
                        "tags":{
                            "addr:city":"Rotterdam",
                            "addr:housenumber":"92",
                            "addr:postcode":"3012BT",
                            "addr:street":"Witte de Withstraat",
                            "name":"Witte de With",
                            "shop":"cannabis",
                            "source":"BAG",
                            "source:date":"2013-11-26"
                        }
                    },
                    {
                        "type":"node",
                        "id":2683456620,
                        "lat":52.1577466,
                        "lon":5.375597,
                        "tags":{
                            "addr:city":"Amersfoort",
                            "addr:housenumber":"72",
                            "addr:postcode":"3812CG",
                            "addr:street":"Puntenburgerlaan",
                            "name":"The Zoo",
                            "shop":"cannabis",
                            "source":"BAG",
                            "source:date":"2014-02-11"
                        }
                    },
                    {
                        "type":"node",
                        "id":2709504718,
                        "lat":52.0949063,
                        "lon":5.1254739,
                        "tags":{
                            "addr:city":"Utrecht",
                            "addr:housenumber":"21",
                            "addr:postcode":"3512CS",
                            "addr:street":"Wittevrouwenstraat",
                            "cannabis:medical":"no",
                            "cannabis:recreational":"only",
                            "name":"De Wietstok",
                            "shop":"cannabis",
                            "source":"BAG",
                            "source:date":"2014-02-11"
                        }
                    },
                    {
                        "type":"node",
                        "id":2709506549,
                        "lat":52.0950471,
                        "lon":5.1226656,
                        "tags":{
                            "addr:city":"Utrecht",
                            "addr:housenumber":"81",
                            "addr:postcode":"3512AL",
                            "addr:street":"Voorstraat",
                            "cannabis:medical":"no",
                            "cannabis:recreational":"only",
                            "name":"Pleasure",
                            "shop":"cannabis",
                            "source":"BAG",
                            "source:date":"2014-02-11"
                        }
                    },
                    {
                        "type":"node",
                        "id":2709755367,
                        "lat":52.0953124,
                        "lon":5.1214131,
                        "tags":{
                            "addr:city":"Utrecht",
                            "addr:housenumber":"55",
                            "addr:postcode":"3512TV",
                            "addr:street":"Breedstraat",
                            "cannabis:medical":"no",
                            "cannabis:recreational":"only",
                            "name":"Freak",
                            "opening_hours":"Mo-Sa 10:00-22:00; Su 12:00-22:00",
                            "shop":"cannabis",
                            "source":"BAG",
                            "source:date":"2014-02-11"
                        }
                    },
                    {
                        "type":"node",
                        "id":2712774822,
                        "lat":52.3764799,
                        "lon":4.6502913,
                        "tags":{
                            "addr:city":"Haarlem",
                            "addr:housenumber":"154-ZW",
                            "addr:postcode":"2033DC",
                            "addr:street":"Zomervaart",
                            "name":"Coffeeshop Sandman",
                            "shop":"cannabis",
                            "smoking":"dedicated",
                            "source":"BAG",
                            "source:date":"2014-02-11"
                        }
                    },
                    {
                        "type":"node",
                        "id":2721521816,
                        "lat":52.3782694,
                        "lon":4.8953358,
                        "tags":{
                            "addr:city":"Amsterdam",
                            "addr:housenumber":"30-H",
                            "addr:postcode":"1012ML",
                            "addr:street":"Nieuwendijk",
                            "name":"The Freeworld Experience",
                            "shop":"cannabis",
                            "source":"BAG",
                            "source:date":"2014-02-11"
                        }
                    },
                    {
                        "type":"node",
                        "id":2721722609,
                        "lat":52.3742268,
                        "lon":4.8936043,
                        "tags":{
                            "addr:city":"Amsterdam",
                            "addr:country":"NL",
                            "addr:housenumber":"14",
                            "addr:postcode":"1012LX",
                            "addr:street":"Zoutsteeg",
                            "name":"Kadinsky",
                            "shop":"cannabis",
                            "source":"BAG",
                            "source:date":"2014-02-11"
                        }
                    },
                    {
                        "type":"node",
                        "id":2721723327,
                        "lat":52.3742317,
                        "lon":4.8926204,
                        "tags":{
                            "addr:city":"Amsterdam",
                            "addr:country":"NL",
                            "addr:housenumber":"9",
                            "addr:postcode":"1012NL",
                            "addr:street":"Gravenstraat",
                            "name":"Barraka",
                            "shop":"cannabis",
                            "source":"BAG",
                            "source:date":"2014-02-11"
                        }
                    },
                    {
                        "type":"node",
                        "id":2721771822,
                        "lat":52.3759804,
                        "lon":4.8959932,
                        "tags":{
                            "addr:city":"Amsterdam",
                            "addr:housenumber":"26",
                            "addr:postcode":"1012JP",
                            "addr:street":"Oudebrugsteeg",
                            "name":"De Kroon",
                            "shop":"cannabis",
                            "source":"BAG",
                            "source:date":"2014-02-11"
                        }
                    },
                    {
                        "type":"node",
                        "id":2721825212,
                        "lat":52.3699089,
                        "lon":4.8820968,
                        "tags":{
                            "addr:city":"Amsterdam",
                            "addr:housenumber":"3-H",
                            "addr:postcode":"1016TM",
                            "addr:street":"Elandsgracht",
                            "name":"Coffeeshop Johnny",
                            "name:nl":"Coffeeshop Johnny",
                            "shop":"cannabis",
                            "source":"BAG",
                            "source:date":"2014-02-11"
                        }
                    },
                    {
                        "type":"node",
                        "id":2724220416,
                        "lat":52.369353,
                        "lon":4.8929978,
                        "tags":{
                            "addr:city":"Amsterdam",
                            "addr:country":"NL",
                            "addr:housenumber":"7A",
                            "addr:postcode":"1012GB",
                            "addr:street":"Langebrugsteeg",
                            "name":"Kadinsky",
                            "shop":"cannabis",
                            "source":"BAG",
                            "source:date":"2014-02-11"
                        }
                    },
                    {
                        "type":"node",
                        "id":2725662864,
                        "lat":52.374969,
                        "lon":4.9012844,
                        "tags":{
                            "addr:city":"Amsterdam",
                            "addr:housenumber":"54-H",
                            "addr:postcode":"1012BK",
                            "addr:street":"Geldersekade",
                            "name":"Het Gelderse",
                            "shop":"cannabis",
                            "source":"BAG",
                            "source:date":"2014-02-11"
                        }
                    },
                    {
                        "type":"node",
                        "id":2725878222,
                        "lat":52.3654806,
                        "lon":4.8975372,
                        "tags":{
                            "addr:city":"Amsterdam",
                            "addr:housenumber":"14",
                            "addr:postcode":"1017VN",
                            "addr:street":"Utrechtsestraat",
                            "name":"Hunter's Coffeeshop",
                            "outdoor_seating":"yes",
                            "shop":"cannabis",
                            "source":"BAG",
                            "source:date":"2014-02-11",
                            "website":"https://hunters-coffeeshop.com/",
                            "wheelchair":"no"
                        }
                    },
                    {
                        "type":"node",
                        "id":2725878856,
                        "lat":52.3656552,
                        "lon":4.8964012,
                        "tags":{
                            "addr:city":"Amsterdam",
                            "addr:housenumber":"24",
                            "addr:postcode":"1017CV",
                            "addr:street":"Rembrandtplein",
                            "name":"Coffeeshop Smokey",
                            "shop":"cannabis",
                            "source":"BAG",
                            "source:date":"2014-02-11",
                            "website":"https://smokey.nl/"
                        }
                    },
                    {
                        "type":"node",
                        "id":2725879124,
                        "lat":52.3662607,
                        "lon":4.8993897,
                        "tags":{
                            "addr:city":"Amsterdam",
                            "addr:housenumber":"35",
                            "addr:postcode":"1017DA",
                            "addr:street":"Amstelstraat",
                            "name":"Coffeeshop Kooi",
                            "shop":"cannabis",
                            "source":"BAG",
                            "source:date":"2014-02-11",
                            "website":"https://kooi.business.site/"
                        }
                    },
                    {
                        "type":"node",
                        "id":2725879132,
                        "lat":52.3662521,
                        "lon":4.8994632,
                        "tags":{
                            "addr:city":"Amsterdam",
                            "addr:housenumber":"37",
                            "addr:postcode":"1017DA",
                            "addr:street":"Amstelstraat",
                            "name":"Old Amsterdam Seeds & Plants",
                            "shop":"cannabis",
                            "source":"BAG",
                            "source:date":"2014-02-11"
                        }
                    },
                    {
                        "type":"node",
                        "id":2729938497,
                        "lat":52.3656607,
                        "lon":4.884861,
                        "tags":{
                            "addr:city":"Amsterdam",
                            "addr:housenumber":"38",
                            "addr:postcode":"1017GM",
                            "addr:street":"Kerkstraat",
                            "name":"Dolphin coffie shop",
                            "name:nl":"Dolphin coffie shop",
                            "shop":"cannabis",
                            "source":"BAG",
                            "source:date":"2014-02-11"
                        }
                    },
                    {
                        "type":"node",
                        "id":2729938504,
                        "lat":52.3656175,
                        "lon":4.8852579,
                        "tags":{
                            "addr:city":"Amsterdam",
                            "addr:housenumber":"39",
                            "addr:postcode":"1017GB",
                            "addr:street":"Kerkstraat",
                            "amenity":"cafe",
                            "name":"Dolphins Coffeeshop",
                            "shop":"cannabis",
                            "source":"BAG",
                            "source:date":"2014-02-11"
                        }
                    },
                    {
                        "type":"node",
                        "id":2729940481,
                        "lat":52.3652516,
                        "lon":4.8858642,
                        "tags":{
                            "addr:city":"Amsterdam",
                            "addr:housenumber":"51-H",
                            "addr:postcode":"1017GC",
                            "addr:street":"Kerkstraat",
                            "name":"Happy Feelings",
                            "name:nl":"Happy Feelings",
                            "shop":"cannabis",
                            "source":"BAG",
                            "source:date":"2014-02-11"
                        }
                    },
                    {
                        "type":"node",
                        "id":2732762210,
                        "lat":52.3119033,
                        "lon":4.6948506,
                        "tags":{
                            "addr:city":"Hoofddorp",
                            "addr:housenumber":"10",
                            "addr:postcode":"2131AC",
                            "addr:street":"Graftermeerstraat",
                            "name":"De Groene Gaper",
                            "phone":"+31 23 5632928",
                            "shop":"cannabis",
                            "source":"BAG",
                            "source:date":"2014-02-11",
                            "website":"https://degroenegaper.com/"
                        }
                    },
                    {
                        "type":"node",
                        "id":2733960668,
                        "lat":52.3071492,
                        "lon":4.6905653,
                        "tags":{
                            "addr:city":"Hoofddorp",
                            "addr:housenumber":"1043",
                            "addr:postcode":"2131CS",
                            "addr:street":"Kruisweg",
                            "name":"Super Fly Coffeeshop",
                            "shop":"cannabis",
                            "source":"BAG",
                            "source:date":"2014-02-11"
                        }
                    },
                    {
                        "type":"node",
                        "id":2741083751,
                        "lat":52.3673301,
                        "lon":4.9065076,
                        "tags":{
                            "addr:city":"Amsterdam",
                            "addr:housenumber":"71",
                            "addr:postcode":"1011RR",
                            "addr:street":"Nieuwe Herengracht",
                            "name":"Coffeeshop De Overkant",
                            "opening_hours":"Mo-Su 10:00-24:00",
                            "shop":"cannabis",
                            "source":"BAG",
                            "source:date":"2014-03-24"
                        }
                    },
                    {
                        "type":"node",
                        "id":2742803490,
                        "lat":52.3634565,
                        "lon":4.9104761,
                        "tags":{
                            "addr:city":"Amsterdam",
                            "addr:housenumber":"12-H",
                            "addr:postcode":"1018WD",
                            "addr:street":"Roetersstraat",
                            "name":"Coffeeshop Het Ballonnetje",
                            "shop":"cannabis",
                            "source":"BAG",
                            "source:date":"2014-03-24",
                            "website":"https://www.coffeeshophetballonnetje.nl/",
                            "wheelchair":"yes"
                        }
                    },
                    {
                        "type":"node",
                        "id":2787451745,
                        "lat":51.8909546,
                        "lon":4.477641,
                        "tags":{
                            "addr:city":"Rotterdam",
                            "addr:housenumber":"281",
                            "addr:postcode":"3083MN",
                            "addr:street":"Wolphaertsbocht",
                            "name":"Coffeeshop Countdown",
                            "shop":"cannabis",
                            "source":"BAG",
                            "source:date":"2014-03-24"
                        }
                    },
                    {
                        "type":"node",
                        "id":2791240207,
                        "lat":52.6429167,
                        "lon":5.0527098,
                        "tags":{
                            "addr:city":"Hoorn",
                            "addr:housenumber":"24",
                            "addr:postcode":"1621JW",
                            "addr:street":"Dubbele Buurt",
                            "cannabis:recreational":"yes",
                            "name":"Coffeeshop Zuiderzee",
                            "opening_hours":"Mo-Su 10:00-20:55",
                            "operator":"Wolf bv",
                            "phone":"+31 229 277 512",
                            "shop":"cannabis",
                            "source":"BAG",
                            "source:date":"2014-03-24",
                            "website":"https://coffeeshop-zuiderzee.business.site/"
                        }
                    },
                    {
                        "type":"node",
                        "id":2811994743,
                        "lat":52.372668,
                        "lon":4.8494805,
                        "tags":{
                            "addr:city":"Amsterdam",
                            "addr:housenumber":"285-H",
                            "addr:postcode":"1056CA",
                            "addr:street":"Jan van Galenstraat",
                            "description":"Coffeeshop",
                            "internet_access":"no",
                            "internet_access:fee":"yes",
                            "internet_access:ssid":"Loft",
                            "name":"Loft",
                            "opening_hours":"Mo-Su 10:00-23:00",
                            "outdoor_seating":"no",
                            "payment:cash":"yes",
                            "payment:credit_cards":"yes",
                            "payment:debit_cards":"yes",
                            "shop":"cannabis",
                            "website":"https://thecoffeeshops.com",
                            "wheelchair":"limited"
                        }
                    },
                    {
                        "type":"node",
                        "id":2816951849,
                        "lat":52.3435253,
                        "lon":4.86442,
                        "tags":{
                            "addr:city":"Amsterdam",
                            "addr:housenumber":"107",
                            "addr:postcode":"1076BN",
                            "addr:street":"Stadionkade",
                            "name":"Coffeeshop De Kade",
                            "phone":"+31 20 6738102",
                            "shop":"cannabis",
                            "source":"BAG",
                            "source:date":"2014-03-24",
                            "website":"https://www.coffeeshopdekade.nl/"
                        }
                    },
                    {
                        "type":"node",
                        "id":2817534208,
                        "lat":52.3574458,
                        "lon":4.9020551,
                        "tags":{
                            "addr:city":"Amsterdam",
                            "addr:housenumber":"16-H",
                            "addr:postcode":"1074BP",
                            "addr:street":"Hemonystraat",
                            "name":"Coffeeshop IBIZA",
                            "name:ru":"Кофешоп Ибица",
                            "phone":"+31 20 2232534",
                            "shop":"cannabis",
                            "source":"BAG",
                            "source:date":"2014-03-24",
                            "website":"https://www.coffeeshopibiza.com/",
                            "wheelchair":"limited"
                        }
                    },
                    {
                        "type":"node",
                        "id":2817716490,
                        "lat":52.3515868,
                        "lon":4.8945016,
                        "tags":{
                            "addr:city":"Amsterdam",
                            "addr:housenumber":"8",
                            "addr:postcode":"1072PH",
                            "addr:street":"Van der Helstplein",
                            "contact:whatsapp":"+31 6 10024332",
                            "name":"Coffeeshop Papillon",
                            "shop":"cannabis",
                            "source":"BAG",
                            "source:date":"2014-03-24",
                            "website":"https://www.coffeeshoppapillonamsterdam.nl/",
                            "wheelchair":"no"
                        }
                    },
                    {
                        "type":"node",
                        "id":2830012951,
                        "lat":52.3651174,
                        "lon":4.939748,
                        "tags":{
                            "addr:city":"Amsterdam",
                            "addr:housenumber":"1-H",
                            "addr:postcode":"1095TS",
                            "addr:street":"Niasstraat",
                            "amenity":"coffee_shop",
                            "name":"Best Friends",
                            "shop":"cannabis",
                            "source":"BAG",
                            "source:date":"2014-03-24"
                        }
                    },
                    {
                        "type":"node",
                        "id":2843036795,
                        "lat":52.3368694,
                        "lon":5.2212127,
                        "tags":{
                            "addr:city":"Almere",
                            "addr:housenumber":"260",
                            "addr:postcode":"1354HX",
                            "addr:street":"Schoolstraat",
                            "name":"Chillie Kiki",
                            "opening_hours":"Mo-Fr 16:00-22:00; Sa-Su 14:00-22:00",
                            "shop":"cannabis",
                            "source":"BAG",
                            "source:date":"2014-03-24",
                            "website":"http://www.chilliekiki.nl/"
                        }
                    },
                    {
                        "type":"node",
                        "id":2876408389,
                        "lat":52.6286693,
                        "lon":4.7521987,
                        "tags":{
                            "addr:city":"Alkmaar",
                            "addr:housenumber":"16",
                            "addr:postcode":"1811EJ",
                            "addr:street":"Laat",
                            "name":"Any Time",
                            "opening_hours":"Mo-Su 10:00-22:00",
                            "phone":"+31725125400",
                            "shop":"cannabis",
                            "source":"BAG",
                            "source:date":"2014-05-20"
                        }
                    },
                    {
                        "type":"node",
                        "id":2876413534,
                        "lat":52.6288703,
                        "lon":4.7516537,
                        "tags":{
                            "addr:city":"Alkmaar",
                            "addr:housenumber":"34",
                            "addr:postcode":"1811EJ",
                            "addr:street":"Laat",
                            "name":"Zero Zero Coffeeshop",
                            "note":"sell hashish and weed",
                            "opening_hours":"Su-Mo 13:00-22:00; Tu-We 10:00-22:00; Th 10:00-23:00",
                            "phone":"+31725150101",
                            "shop":"cannabis",
                            "smoking":"yes",
                            "source":"BAG",
                            "source:date":"2014-05-20"
                        }
                    },
                    {
                        "type":"node",
                        "id":2893598285,
                        "lat":52.4448126,
                        "lon":4.8186722,
                        "tags":{
                            "addr:city":"Zaandam",
                            "addr:housenumber":"8",
                            "addr:postcode":"1506WD",
                            "addr:street":"Parkstraat",
                            "name":"Squad",
                            "opening_hours":"Mo-Su 10:00-22:00",
                            "shop":"cannabis",
                            "source":"BAG",
                            "source:date":"2014-06-01"
                        }
                    },
                    {
                        "type":"node",
                        "id":2909054632,
                        "lat":52.4933751,
                        "lon":4.6788845,
                        "tags":{
                            "addr:city":"Beverwijk",
                            "addr:housenumber":"37",
                            "addr:postcode":"1946TJ",
                            "addr:street":"Belgiëlaan",
                            "name":"Coffeeshop Stingray",
                            "shop":"cannabis",
                            "source":"BAG",
                            "source:date":"2014-06-10"
                        }
                    },
                    {
                        "type":"node",
                        "id":3004388087,
                        "lat":52.1046173,
                        "lon":5.1832485,
                        "tags":{
                            "addr:city":"De Bilt",
                            "addr:housenumber":"5A",
                            "addr:postcode":"3732EH",
                            "addr:street":"Burgemeester De Withstraat",
                            "cannabis:medical":"no",
                            "cannabis:recreational":"only",
                            "name":"Exotic",
                            "opening_hours":"Mo-Th,Su 11:00-22:00; Fr-Sa 11:00-23:00",
                            "shop":"cannabis",
                            "source":"BAG",
                            "source:date":"2014-08-08"
                        }
                    },
                    {
                        "type":"node",
                        "id":3086477275,
                        "lat":52.2258334,
                        "lon":5.1792475,
                        "tags":{
                            "amenity":"coffee_shop",
                            "name":"De Leeuw",
                            "shop":"cannabis"
                        }
                    },
                    {
                        "type":"node",
                        "id":3086477326,
                        "lat":52.2259533,
                        "lon":5.1793006,
                        "tags":{
                            "amenity":"coffee_shop",
                            "name":"Rif",
                            "shop":"cannabis"
                        }
                    },
                    {
                        "type":"node",
                        "id":3273681661,
                        "lat":52.368831,
                        "lon":4.888386,
                        "tags":{
                            "addr:city":"Amsterdam",
                            "addr:housenumber":"6",
                            "addr:postcode":"1012WC",
                            "addr:street":"Heisteeg",
                            "alt_name":"De Tweede Kamer coffeeshop",
                            "name":"Tweede Kamer",
                            "note":"No Hats!",
                            "opening_hours":"Mo-Su 10:00-01:00",
                            "operator":"Dampkring",
                            "shop":"cannabis",
                            "takeaway":"yes",
                            "website":"http://tweedekamer.shop",
                            "wheelchair":"yes"
                        }
                    },
                    {
                        "type":"node",
                        "id":3273823061,
                        "lat":52.371476,
                        "lon":4.895748,
                        "tags":{
                            "addr:city":"Amsterdam",
                            "addr:housenumber":"191",
                            "addr:postcode":"1012EW",
                            "addr:street":"Oudezijds Voorburgwal",
                            "internet_access":"wlan",
                            "name":"Green House",
                            "opening_hours":"Mo-Su 09:00-01:00",
                            "shop":"cannabis",
                            "smoking":"no",
                            "takeaway":"yes",
                            "website":"https://www.greenhouse.org/",
                            "wheelchair":"limited"
                        }
                    },
                    {
                        "type":"node",
                        "id":3274483361,
                        "lat":52.376389,
                        "lon":4.902038,
                        "tags":{
                            "addr:city":"Amsterdam",
                            "addr:housenumber":"2",
                            "addr:postcode":"1012BH",
                            "addr:street":"Geldersekade",
                            "internet_access":"wlan",
                            "name":"Voyagers Coffeeshop",
                            "opening_hours":"Mo-Su 10:00-23:00",
                            "outdoor_seating":"no",
                            "phone":"+31 20 624 68 71",
                            "shop":"cannabis",
                            "smoking":"yes",
                            "takeaway":"yes",
                            "wheelchair":"no"
                        }
                    },
                    {
                        "type":"node",
                        "id":3899090812,
                        "lat":52.3530315,
                        "lon":4.8846713,
                        "tags":{
                            "addr:city":"Amsterdam",
                            "addr:housenumber":"10",
                            "addr:postcode":"1071VC",
                            "addr:street":"Balthasar Floriszstraat",
                            "name":"Coffeeshop Pacific",
                            "phone":"+31 20 6710318",
                            "shop":"cannabis",
                            "website":"https://coffeeshop-pacific.business.site/"
                        }
                    },
                    {
                        "type":"node",
                        "id":3939447657,
                        "lat":52.3799464,
                        "lon":4.8932089,
                        "tags":{
                            "addr:city":"Amsterdam",
                            "addr:housenumber":"34",
                            "addr:postcode":"1013ES",
                            "addr:street":"Haarlemmerstraat",
                            "cuisine":"breakfast",
                            "internet_access":"no",
                            "name":"Coffeeshop La Grotte",
                            "outdoor_seating":"no",
                            "shop":"cannabis",
                            "smoking":"yes",
                            "website":"http://coffeeshoplagrotte.com"
                        }
                    },
                    {
                        "type":"node",
                        "id":4089931980,
                        "lat":52.3736586,
                        "lon":4.8977039,
                        "tags":{
                            "addr:city":"Amsterdam",
                            "addr:street":"Oudezijds Voorburgwal",
                            "name":"The Bulldog",
                            "shop":"cannabis",
                            "website":"https://www.thebulldog.com/"
                        }
                    },
                    {
                        "type":"node",
                        "id":4089931981,
                        "lat":52.3732899,
                        "lon":4.8971828,
                        "tags":{
                            "addr:city":"Amsterdam",
                            "addr:street":"Oudezijds Voorburgwal",
                            "name":"Bulldog Cafe Mack",
                            "shop":"cannabis"
                        }
                    },
                    {
                        "type":"node",
                        "id":4135906815,
                        "lat":52.3767242,
                        "lon":4.9019625,
                        "tags":{
                            "addr:city":"Amsterdam",
                            "addr:street":"Prins Hendrikkade",
                            "name":"Central Coffee Shop",
                            "shop":"cannabis",
                            "wheelchair":"yes"
                        }
                    },
                    {
                        "type":"node",
                        "id":4212536376,
                        "lat":52.3768852,
                        "lon":4.8971494,
                        "tags":{
                            "name":"Prix d'Ami",
                            "name:zh":"大麻店",
                            "shop":"cannabis"
                        }
                    },
                    {
                        "type":"node",
                        "id":4212544089,
                        "lat":52.3759282,
                        "lon":4.8958867,
                        "tags":{
                            "addr:city":"Amsterdam",
                            "addr:housenumber":"27",
                            "addr:street":"Oudebrugsteeg",
                            "amenity":"cafe",
                            "name":"420 Cafe",
                            "shop":"cannabis"
                        }
                    },
                    {
                        "type":"node",
                        "id":4314383991,
                        "lat":52.0971829,
                        "lon":5.126912,
                        "tags":{
                            "addr:city":"Utrecht",
                            "addr:housenumber":"206",
                            "addr:postcode":"3572CE",
                            "addr:street":"Wittevrouwensingel",
                            "name":"Culture Boat",
                            "opening_hours":"Mo-Su 12:00-23:00",
                            "shop":"cannabis",
                            "website":"https://cultureboat.nl/"
                        }
                    },
                    {
                        "type":"node",
                        "id":4391567789,
                        "lat":52.3641115,
                        "lon":4.8876946,
                        "tags":{
                            "addr:city":"Amsterdam",
                            "addr:housenumber":"119",
                            "addr:postcode":"1017GE",
                            "addr:street":"Kerkstraat",
                            "name":"Azarius",
                            "name:en":"Azarius",
                            "name:nl":"Azarius",
                            "opening_hours":"Mo-We 11:00-18:00; Th-Sa 11:00-21:00; Su 12:00-18:00",
                            "payment:bitcoin":"yes",
                            "phone":"+31204897914",
                            "shop":"cannabis",
                            "website":"https://azarius.nl/pages/azarius_kerkstraat/"
                        }
                    },
                    {
                        "type":"node",
                        "id":4519345835,
                        "lat":52.3751345,
                        "lon":4.6303666,
                        "tags":{
                            "addr:city":"Haarlem",
                            "addr:housenumber":"16a",
                            "addr:street":"Houtplein",
                            "amenity":"cafe",
                            "level":"1",
                            "name":"Willie Wortel Sensimillia",
                            "shop":"cannabis",
                            "smoking":"dedicated"
                        }
                    },
                    {
                        "type":"node",
                        "id":4821447649,
                        "lat":52.3778498,
                        "lon":4.6308186,
                        "tags":{
                            "addr:city":"Haarlem",
                            "addr:housenumber":"29",
                            "addr:street":"Doelstraat",
                            "description":"Coffeeshop",
                            "internet_access":"wlan",
                            "internet_access:fee":"yes",
                            "name":"The Lounge",
                            "outdoor_seating":"no",
                            "phone":"+31(0)235765895",
                            "shop":"cannabis"
                        }
                    },
                    {
                        "type":"node",
                        "id":7667621535,
                        "lat":52.1631128,
                        "lon":4.4843902,
                        "tags":{
                            "name":"Coffeeshop De 1e Kamer",
                            "shop":"cannabis"
                        }
                    },
                    {
                        "type":"node",
                        "id":7667621541,
                        "lat":52.1618353,
                        "lon":4.48401,
                        "tags":{
                            "name":"Le Palais",
                            "shop":"cannabis"
                        }
                    },
                    {
                        "type":"node",
                        "id":7667621553,
                        "lat":52.1630799,
                        "lon":4.4857404,
                        "tags":{
                            "name":"Paradise",
                            "shop":"cannabis"
                        }
                    },
                    {
                        "type":"node",
                        "id":7667621555,
                        "lat":52.1631647,
                        "lon":4.4862574,
                        "tags":{
                            "name":"Double AA",
                            "shop":"cannabis"
                        }
                    },
                    {
                        "type":"node",
                        "id":7917706016,
                        "lat":52.6302996,
                        "lon":4.7427532,
                        "tags":{
                            "name":"Stepping Out",
                            "shop":"cannabis"
                        }
                    },
                    {
                        "type":"node",
                        "id":7929666533,
                        "lat":52.6323198,
                        "lon":4.7529794,
                        "tags":{
                            "name":"Coffeeshop De Brug",
                            "shop":"cannabis"
                        }
                    },
                    {
                        "type":"node",
                        "id":8234792078,
                        "lat":52.311406,
                        "lon":4.9484964,
                        "tags":{
                            "name":"Roots",
                            "shop":"cannabis"
                        }
                    },
                    {
                        "type":"node",
                        "id":8284992823,
                        "lat":52.35396,
                        "lon":4.855898,
                        "tags":{
                            "name":"Best Friends",
                            "shop":"cannabis",
                            "website":"https://bestfriendsamsterdam.com/locations/oud-zuid/"
                        }
                    },
                    {
                        "type":"node",
                        "id":8665909161,
                        "lat":52.3564155,
                        "lon":4.8955743,
                        "tags":{
                            "addr:city":"Amsterdam",
                            "addr:housenumber":"188",
                            "addr:postcode":"1073XA",
                            "addr:street":"Gerard Doustraat",
                            "name":"Coffeeshop Roxy",
                            "shop":"cannabis",
                            "website":"http://coffeeshoproxy.nl/"
                        }
                    },
                    {
                        "type":"node",
                        "id":8690438883,
                        "lat":52.2732111,
                        "lon":5.1652153,
                        "tags":{
                            "addr:city":"Bussum",
                            "addr:housenumber":"43A",
                            "addr:postcode":"1404HW",
                            "addr:street":"Kapelstraat",
                            "email":"piramide@ziggo.nl",
                            "name":"Cannabis Store Pyramid",
                            "opening_hours":"Mo-Sa 12:00-20:00; Su 18:00-20:00; Jan 1 off; Dec 25 off; Apr 27 off",
                            "phone":"+31356936465",
                            "shop":"cannabis",
                            "website":"https://www.piramidebussum.nl/"
                        }
                    },
                    {
                        "type":"node",
                        "id":8712066315,
                        "lat":52.3674871,
                        "lon":4.8639469,
                        "tags":{
                            "addr:city":"Amsterdam",
                            "addr:housenumber":"109",
                            "addr:postcode":"1053SN",
                            "addr:street":"Jan Hanzenstraat",
                            "name":"Millenium Coffeeshop",
                            "shop":"cannabis"
                        }
                    },
                    {
                        "type":"node",
                        "id":9011995709,
                        "lat":52.3674747,
                        "lon":4.8620094,
                        "tags":{
                            "name":"Coffeeshop Massawa",
                            "opening_hours:covid19":"open",
                            "shop":"cannabis"
                        }
                    },
                    {
                        "type":"node",
                        "id":9023838211,
                        "lat":52.3689894,
                        "lon":4.8593135,
                        "tags":{
                            "name":"El Marssa Coffeeshop",
                            "opening_hours:covid19":"open",
                            "shop":"cannabis"
                        }
                    },
                    {
                        "type":"node",
                        "id":9081961245,
                        "lat":52.3937539,
                        "lon":4.9128346,
                        "tags":{
                            "cannabis:recreational":"yes",
                            "name":"Hunter’s Coffeeshop",
                            "opening_hours":"Mo-Su 07:00-01:00",
                            "shop":"cannabis",
                            "website":"https://hunters-coffeeshop.com/locations/papaverweg-2/"
                        }
                    },
                    {
                        "type":"node",
                        "id":9082002107,
                        "lat":52.3669021,
                        "lon":4.8953903,
                        "tags":{
                            "cannabis:recreational":"yes",
                            "name":"Coffeeshop Family First",
                            "opening_hours":"Mo-Fr 09:00-00:45",
                            "shop":"cannabis",
                            "website":"https://www.familyfirstamsterdam.com/"
                        }
                    }
                ]
            },
            "headers":{
                "access-control-allow-credentials":"true",
                "access-control-allow-origin":"*",
                "connection":"keep-alive",
                "content-length":"20809",
                "content-type":"application/json; charset=utf-8",
                "date":"Wed, 24 Nov 2021 17:03:52 GMT",
                "etag":"W/\"5149-0q6SuOLdX0bUzddffQaqaTeB/hw\"",
                "server":"RapidAPI-1.2.8",
                "vary":"Accept-Encoding",
                "via":"1.1 vegur",
                "x-powered-by":"Express",
                "x-rapidapi-region":"AWS - eu-central-1",
                "x-rapidapi-version":"1.2.8"
            },
            "schema":{}
        },
        {
            "name":"/shops-in-boundingbox",
            "url":"https://cannafinder.p.rapidapi.com/shops-in-boundingbox",
            "description":"Find shops in a coordinates boundingbox",
            "method":"GET",
            "required_parameters":[
                {
                    "name":"maxLon",
                    "type":"NUMBER",
                    "description":"",
                    "default":"4.765994"
                },
                {
                    "name":"minLat",
                    "type":"NUMBER",
                    "description":"",
                    "default":"52.329564"
                },
                {
                    "name":"maxLat",
                    "type":"NUMBER",
                    "description":"",
                    "default":"52.4577195"
                },
                {
                    "name":"minLon",
                    "type":"NUMBER",
                    "description":"",
                    "default":"4.980314"
                }
            ],
            "optional_parameters":[],
            "code":"import requests\n\nurl = \"https://cannafinder.p.rapidapi.com/shops-in-boundingbox\"\nquerystring = {\"maxLon\": maxlon, \"minLat\": minlat, \"maxLat\": maxlat, \"minLon\": minlon}\n\nheaders = {\n    \"X-RapidAPI-Key\": \"SIGN-UP-FOR-KEY\",\n    \"X-RapidAPI-Host\": \"cannafinder.p.rapidapi.com\"\n}\n\nresponse = requests.get(url, headers=headers, params=querystring)\n\nprint(response.json())\n",
            "statuscode":200,
            "body":{
                "data":[
                    {
                        "type":"node",
                        "id":519147562,
                        "lat":52.3799367,
                        "lon":4.6311874,
                        "tags":{
                            "name":"Easy Max (Maximilian)",
                            "shop":"cannabis"
                        }
                    },
                    {
                        "type":"node",
                        "id":2712774822,
                        "lat":52.3764799,
                        "lon":4.6502913,
                        "tags":{
                            "addr:city":"Haarlem",
                            "addr:housenumber":"154-ZW",
                            "addr:postcode":"2033DC",
                            "addr:street":"Zomervaart",
                            "name":"Coffeeshop Sandman",
                            "shop":"cannabis",
                            "smoking":"dedicated",
                            "source":"BAG",
                            "source:date":"2014-02-11"
                        }
                    },
                    {
                        "type":"node",
                        "id":2843036795,
                        "lat":52.3368694,
                        "lon":5.2212127,
                        "tags":{
                            "addr:city":"Almere",
                            "addr:housenumber":"260",
                            "addr:postcode":"1354HX",
                            "addr:street":"Schoolstraat",
                            "name":"Chillie Kiki",
                            "opening_hours":"Mo-Fr 16:00-22:00; Sa-Su 14:00-22:00",
                            "shop":"cannabis",
                            "source":"BAG",
                            "source:date":"2014-03-24",
                            "website":"http://www.chilliekiki.nl/"
                        }
                    },
                    {
                        "type":"node",
                        "id":2854645799,
                        "lat":52.3497262,
                        "lon":5.6152379,
                        "tags":{
                            "addr:city":"Harderwijk",
                            "addr:housenumber":"3",
                            "addr:postcode":"3841CW",
                            "addr:street":"Vijhestraat",
                            "name":"Columbus",
                            "shop":"cannabis",
                            "source":"BAG",
                            "source:date":"2014-05-07"
                        }
                    },
                    {
                        "type":"node",
                        "id":4519345835,
                        "lat":52.3751345,
                        "lon":4.6303666,
                        "tags":{
                            "addr:city":"Haarlem",
                            "addr:housenumber":"16a",
                            "addr:street":"Houtplein",
                            "amenity":"cafe",
                            "level":"1",
                            "name":"Willie Wortel Sensimillia",
                            "shop":"cannabis",
                            "smoking":"dedicated"
                        }
                    },
                    {
                        "type":"node",
                        "id":4821447649,
                        "lat":52.3778498,
                        "lon":4.6308186,
                        "tags":{
                            "addr:city":"Haarlem",
                            "addr:housenumber":"29",
                            "addr:street":"Doelstraat",
                            "description":"Coffeeshop",
                            "internet_access":"wlan",
                            "internet_access:fee":"yes",
                            "name":"The Lounge",
                            "outdoor_seating":"no",
                            "phone":"+31(0)235765895",
                            "shop":"cannabis"
                        }
                    },
                    {
                        "type":"node",
                        "id":9043999220,
                        "lat":52.3802522,
                        "lon":9.7317078,
                        "tags":{
                            "addr:city":"Hannover",
                            "addr:housenumber":"26",
                            "addr:postcode":"30159",
                            "addr:street":"Striehlstraße",
                            "email":"info@shishabongclub.de",
                            "level":"-1",
                            "min_age":"18",
                            "name":"Shisha & Grow Shop Hannover",
                            "opening_hours":"Mo-Sa 10:00-21:00; Su off",
                            "operator":"Onur Kahtalioglu",
                            "payment:cash":"yes",
                            "payment:credit_cards":"yes",
                            "payment:debit_cards":"yes",
                            "phone":"+49511 72756822",
                            "ref:vatin":"DE267752247",
                            "shop":"cannabis",
                            "website":"https://shishabongclub.de/"
                        }
                    }
                ]
            },
            "headers":{
                "access-control-allow-credentials":"true",
                "access-control-allow-origin":"*",
                "connection":"keep-alive",
                "content-length":"2121",
                "content-type":"application/json; charset=utf-8",
                "date":"Wed, 24 Nov 2021 16:53:34 GMT",
                "etag":"W/\"849-aVOZ1iTRb+bhELoTcquAH6/UQqQ\"",
                "server":"RapidAPI-1.2.8",
                "vary":"Accept-Encoding",
                "via":"1.1 vegur",
                "x-powered-by":"Express",
                "x-rapidapi-region":"AWS - eu-central-1",
                "x-rapidapi-version":"1.2.8"
            },
            "schema":{}
        },
        {
            "name":"/shops-in-radius-around-coordinates",
            "url":"https://cannafinder.p.rapidapi.com/shops-in-radius-around-coordinates",
            "description":"Find shops in input radius and coordinates. Returns multiple tags for every entry and distance in km.",
            "method":"GET",
            "required_parameters":[
                {
                    "name":"radius",
                    "type":"NUMBER",
                    "description":"in meter. ",
                    "default":"1000"
                },
                {
                    "name":"lat",
                    "type":"NUMBER",
                    "description":"",
                    "default":"52.377075"
                },
                {
                    "name":"lon",
                    "type":"NUMBER",
                    "description":"",
                    "default":"4.902427"
                }
            ],
            "optional_parameters":[],
            "code":"import requests\n\nurl = \"https://cannafinder.p.rapidapi.com/shops-in-radius-around-coordinates\"\nquerystring = {\"radius\": radius, \"lat\": lat, \"lon\": lon}\n\nheaders = {\n    \"X-RapidAPI-Key\": \"SIGN-UP-FOR-KEY\",\n    \"X-RapidAPI-Host\": \"cannafinder.p.rapidapi.com\"\n}\n\nresponse = requests.get(url, headers=headers, params=querystring)\n\nprint(response.json())\n",
            "statuscode":200,
            "body":{
                "key1":"value",
                "key2":"value"
            },
            "headers":{},
            "schema":{
                "type":"object",
                "properties":{
                    "data":{
                        "type":"array",
                        "items":{
                            "type":"object",
                            "properties":{
                                "type":{
                                    "type":"string"
                                },
                                "id":{
                                    "type":"integer"
                                },
                                "lat":{
                                    "type":"number"
                                },
                                "lon":{
                                    "type":"number"
                                },
                                "tags":{
                                    "type":"object"
                                },
                                "distance":{
                                    "type":"number"
                                }
                            }
                        }
                    }
                }
            }
        }
    ]
}